NOAA 2 (ITOS-D)         
1 06235U 72082A   24298.88720517 -.00000011  00000+0  22462-3 0  9999
2 06235 102.0229 299.3849 0003807 233.7235 187.8524 12.53188820379755
NOAA 20 (JPSS-1)        
1 43013U 17073A   24299.52630454  .00000330  00000+0  17736-3 0  9996
2 43013  98.7166 235.3042 0001363 144.1004 216.0264 14.19545583359391
NOAA 21 (JPSS-2)        
1 54234U 22150A   24299.49268860  .00000392  00000+0  20679-3 0  9997
2 54234  98.7621 235.9021 0002053 100.1932 259.9476 14.19546825101460
